[{"OBJECT_NAME":"BUFENG 1A","OBJECT_ID":"2019-032A","EPOCH":"2026-03-09T22:03:27.507168","MEAN_MOTION":15.26012088,"ECCENTRICITY":0.00054719,"INCLINATION":44.9758,"RA_OF_ASC_NODE":238.6688,"ARG_OF_PERICENTER":55.4463,"MEAN_ANOMALY":304.6935,"EPHEMERIS_TYPE":0,"CLASSIFICATION_TYPE":"U","NORAD_CAT_ID":44310,"ELEMENT_SET_NO":999,"REV_AT_EPOCH":37201,"BSTAR":0.00062413703,"MEAN_MOTION_DOT":0.00016103,"MEAN_MOTION_DDOT":0},{"OBJECT_NAME":"STARLINK-32302","OBJECT_ID":"2024-191A","EPOCH":"2026-03-09T06:13:46.536096","MEAN_MOTION":15.27558857,"ECCENTRICITY":0.00014679,"INCLINATION":42.9981,"RA_OF_ASC_NODE":156.6717,"ARG_OF_PERICENTER":319.6331,"MEAN_ANOMALY":40.4412,"EPHEMERIS_TYPE":0,"CLASSIFICATION_TYPE":"U","NORAD_CAT_ID":61621,"ELEMENT_SET_NO":999,"REV_AT_EPOCH":7822,"BSTAR":4.2096458e-5,"MEAN_MOTION_DOT":8.96e-6,"MEAN_MOTION_DDOT":0}]
